{"_default": { "31": {"norad_id": "37214", "name": "FENGYUN 3B", "tle1": "1 37214U 10059A   26202.31982847 -.00000084  00000-0 -20152-4 0  9994", "tle2": "2 37214  98.9601 248.4758 0023230  90.2349 333.2642 14.14848181812258", "object_type": "PAYLOAD", "criticality_score": 9.0, "last_updated": "2026-07-21T16:42:32.471020+00:00", "maneuver_count": 0, "owner": "PRC"}, "32": {"norad_id": "36799", "name": "TISAT 1", "tle1": "1 36799U 10035E   26201.81267580  .00013460  00000-0  42641-3 0  9995", "tle2": "2 36799  98.0710 151.3798 0004768 108.9672 251.2085 15.32865338872850", "object_type": "PAYLOAD", "criticality_score": 9.0, "last_updated": "2026-07-21T16:42:32.471020+00:00", "maneuver_count": 0, "owner": "SWTZ"}, "33": {"norad_id": "33591", "name": "NOAA 19", "tle1": "1 33591U 09005A   26202.24016784  .00000010  00000-0  29017-4 0  9993", "tle2": "2 33591  98.9504 273.1370 0012759 295.8072  64.1784 14.13478933899298", "object_type": "PAYLOAD", "criticality_score": 9.0, "last_updated": "2026-07-21T16:42:32.471020+00:00", "maneuver_count": 0, "owner": "US"}, "61": {"norad_id": "37224", "name": "O/OREOS (USA 219)", "tle1": "1 37224U 10062C   26201.88036302  .00001247  00000-0  12317-3 0  9999", "tle2": "2 37224  71.9703   4.0077 0014379 354.1341   5.9659 14.93865000121677", "object_type": "PAYLOAD", "criticality_score": 9.0, "last_updated": "2026-07-21T16:42:32.471020+00:00", "maneuver_count": 0, "owner": "US"}, "62": {"norad_id": "36795", "name": "CARTOSAT 2B", "tle1": "1 36795U 10035A   26202.31042912  .00000465  00000-0  70546-4 0  9994", "tle2": "2 36795  97.9931 252.6380 0012735  82.6418 277.6240 14.78655419864896", "object_type": "PAYLOAD", "criticality_score": 9.0, "last_updated": "2026-07-21T16:42:32.471020+00:00", "maneuver_count": 0, "owner": "IND"}, "63": {"norad_id": "36122", "name": "XIWANG-1 (HOPE-1)", "tle1": "1 36122U 09072B   26202.29148267  .00000323  00000-0  96158-3 0  9993", "tle2": "2 36122 100.4044 155.5817 0007713 151.0751 209.0791 13.16441904797496", "object_type": "PAYLOAD", "criticality_score": 9.0, "last_updated": "2026-07-21T16:42:32.471020+00:00", "maneuver_count": 0, "owner": "PRC"}, "64": {"norad_id": "35935", "name": "ITUPSAT 1", "tle1": "1 35935U 09051E   26202.21936033  .00000500  00000-0  11302-3 0  9994", "tle2": "2 35935  98.4011 109.4157 0008413 126.3913 233.8064 14.60484544893701", "object_type": "PAYLOAD", "criticality_score": 9.0, "last_updated": "2026-07-21T16:42:32.471020+00:00", "maneuver_count": 0, "owner": "TURK"}, "65": {"norad_id": "35933", "name": "BEESAT", "tle1": "1 35933U 09051C   26202.19863883  .00000544  00000-0  11884-3 0  9994", "tle2": "2 35933  98.3928 110.2394 0006422 114.2759 245.9113 14.61768115894159", "object_type": "PAYLOAD", "criticality_score": 9.0, "last_updated": "2026-07-21T16:42:32.471020+00:00", "maneuver_count": 0, "owner": "GER"}, "66": {"norad_id": "35932", "name": "SWISSCUBE", "tle1": "1 35932U 09051B   26202.17141100  .00000657  00000-0  13918-3 0  9997", "tle2": "2 35932  98.4001 110.6478 0008058 103.2004 257.0097 14.62538143894125", "object_type": "PAYLOAD", "criticality_score": 9.0, "last_updated": "2026-07-21T16:42:32.471020+00:00", "maneuver_count": 0, "owner": "SWTZ"}, "67": {"norad_id": "33499", "name": "KKS-1 (KISEKI)", "tle1": "1 33499U 09002H   26202.25864612  .00000834  00000-0  10889-3 0  9999", "tle2": "2 33499  98.1170 125.2405 0007915 169.1403 190.9983 14.83198668941244", "object_type": "PAYLOAD", "criticality_score": 9.0, "last_updated": "2026-07-21T16:42:32.471020+00:00", "maneuver_count": 0, "owner": "JPN"}, "89": {"norad_id": "37841", "name": "SRMSAT", "tle1": "1 37841U 11058D   26202.30209510  .00000342  00000-0  41537-4 0  9993", "tle2": "2 37841  19.9702 212.9798 0011594 218.6587 248.7511 14.11581882762640", "object_type": "PAYLOAD", "criticality_score": 9.0, "last_updated": "2026-07-21T16:42:32.471020+00:00", "maneuver_count": 0, "owner": "IND"}, "90": {"norad_id": "37839", "name": "JUGNU", "tle1": "1 37839U 11058B   26202.12079861  .00000384  00000-0  60843-4 0  9991", "tle2": "2 37839  19.9605 102.2612 0018637  91.5002  56.3743 14.13784698763834", "object_type": "PAYLOAD", "criticality_score": 9.0, "last_updated": "2026-07-21T16:42:32.471020+00:00", "maneuver_count": 0, "owner": "IND"}, "122": {"norad_id": "35865", "name": "METEOR-M", "tle1": "1 35865U 09049A   26202.17378590  .00000045  00000-0  39591-4 0  9991", "tle2": "2 35865  98.7408 164.4069 0001830 179.5691 180.5489 14.23163346874080", "object_type": "PAYLOAD", "criticality_score": 9.0, "last_updated": "2026-07-21T16:42:32.471020+00:00", "maneuver_count": 0, "owner": "CIS"}, "123": {"norad_id": "33498", "name": "STARS (KUKAI)", "tle1": "1 33498U 09002G   26201.79893635  .00002307  00000-0  21145-3 0  9997", "tle2": "2 33498  98.1559 150.4864 0009889  64.5658 295.6584 14.95948928943501", "object_type": "PAYLOAD", "criticality_score": 9.0, "last_updated": "2026-07-21T16:42:32.471020+00:00", "maneuver_count": 0, "owner": "JPN"}, "259": {"norad_id": "36037", "name": "PROBA 2", "tle1": "1 36037U 09059B   26202.21547830  .00000122  00000-0  38914-4 0  9998", "tle2": "2 36037  98.2464  25.0987 0013447 170.1563 189.9900 14.54875265886473", "object_type": "PAYLOAD", "criticality_score": 9.0, "last_updated": "2026-07-21T16:42:32.471020+00:00", "maneuver_count": 0, "owner": "ESA"}, "287": {"norad_id": "35683", "name": "DMC 2", "tle1": "1 35683U 09041C   26202.25557819 -.00000032  00000-0  25545-5 0  9995", "tle2": "2 35683  97.8881 336.3977 0001696  99.6298 260.5104 14.76096698911590", "object_type": "PAYLOAD", "criticality_score": 9.0, "last_updated": "2026-07-21T16:42:32.471020+00:00", "maneuver_count": 0, "owner": "UK"}, "299": {"norad_id": "36797", "name": "AISSAT 1", "tle1": "1 36797U 10035C   26202.15578683  .00001324  00000-0  11900-3 0  9990", "tle2": "2 36797  98.0890 102.5940 0007646 314.2500  45.8093 14.97493412869306", "object_type": "PAYLOAD", "criticality_score": 9.0, "last_updated": "2026-07-21T16:42:32.471020+00:00", "maneuver_count": 0, "owner": "NOR"}, "302": {"norad_id": "37388", "name": "YOUTHSAT", "tle1": "1 37388U 11015B   26201.91500856  .00000103  00000-0  60760-4 0  9999", "tle2": "2 37388  98.3708 174.4527 0013290 240.9467 180.3361 14.25642072792444", "object_type": "PAYLOAD", "criticality_score": 9.0, "last_updated": "2026-07-21T16:42:32.471020+00:00", "maneuver_count": 0, "owner": "IND"}, "343": {"norad_id": "36519", "name": "COSMOS 2463", "tle1": "1 36519U 10017A   26202.10826664  .00000023  00000-0  89589-5 0  9997", "tle2": "2 36519  82.9578 224.7822 0036996  37.8997  16.9995 13.71667373812585", "object_type": "PAYLOAD", "criticality_score": 9.0, "last_updated": "2026-07-21T16:42:32.471020+00:00", "maneuver_count": 0, "owner": "CIS"}, "368": {"norad_id": "37344", "name": "ELEKTRO-L", "tle1": "1 37344U 11001A   26202.13447868  .00000036  00000-0  00000-0 0  9996", "tle2": "2 37344   9.7610  54.1551 0004338  35.2312 132.5873  1.00162657 56829", "object_type": "PAYLOAD", "criticality_score": 9.0, "last_updated": "2026-07-21T16:42:32.471020+00:00", "maneuver_count": 0, "owner": "CIS"}, "375": {"norad_id": "37793", "name": "APRIZESAT 6", "tle1": "1 37793U 11044F   26202.01300587  .00000441  00000-0  69672-4 0  9998", "tle2": "2 37793  98.2331 113.1997 0042591 339.5794  39.4778 14.76962228802149", "object_type": "PAYLOAD", "criticality_score": 9.0, "last_updated": "2026-07-21T16:42:32.471020+00:00", "maneuver_count": 0, "owner": "US"}, "463": {"norad_id": "37387", "name": "RESOURCESAT 2", "tle1": "1 37387U 11015A   26202.22470292  .00000027  00000-0  32659-4 0  9994", "tle2": "2 37387  98.7626 269.4282 0011896 154.4773 205.6994 14.21600476791011", "object_type": "PAYLOAD", "criticality_score": 9.0, "last_updated": "2026-07-21T16:42:32.471020+00:00", "maneuver_count": 0, "owner": "IND"}, "472": {"norad_id": "35951", "name": "DMSP 5D-3 F18 (USA 210)", "tle1": "1 35951U 09057A   26202.22597949  .00000229  00000-0  14165-3 0  9996", "tle2": "2 35951  98.9062 182.9253 0011566 148.9131 211.2729 14.14914566864402", "object_type": "PAYLOAD", "criticality_score": 9.0, "last_updated": "2026-07-21T16:42:32.471020+00:00", "maneuver_count": 0, "owner": "US"}, "473": {"norad_id": "36834", "name": "YAOGAN 10", "tle1": "1 36834U 10038A   26202.30893941  .00001155  00000-0  14021-3 0  9998", "tle2": "2 36834  97.8972 225.4415 0001612  85.7751  11.2747 14.85440748862276", "object_type": "PAYLOAD", "criticality_score": 9.0, "last_updated": "2026-07-21T16:42:32.471020+00:00", "maneuver_count": 0, "owner": "PRC"}, "475": {"norad_id": "35931", "name": "OCEANSAT 2", "tle1": "1 35931U 09051A   26202.22694718  .00000094  00000-0  90062-4 0  9991", "tle2": "2 35931  98.2326 185.6798 0017698 136.2220 224.0353 13.99656399884092", "object_type": "PAYLOAD", "criticality_score": 9.0, "last_updated": "2026-07-21T16:42:32.471020+00:00", "maneuver_count": 0, "owner": "IND"}, "498": {"norad_id": "36110", "name": "YAOGAN 7", "tle1": "1 36110U 09069A   26202.14122819  .00000271  00000-0  44785-4 0  9997", "tle2": "2 36110  98.0025  87.7916 0023218 291.2380  68.6351 14.78039004894642", "object_type": "PAYLOAD", "criticality_score": 9.0, "last_updated": "2026-07-21T16:42:32.471020+00:00", "maneuver_count": 0, "owner": "PRC"}, "510": {"norad_id": "37216", "name": "SKYMED 4", "tle1": "1 37216U 10060A   26202.26654689  .00000183  00000-0  29503-4 0  9999", "tle2": "2 37216  97.8904  25.3734 0001522  87.9965 272.1423 14.82150582849611", "object_type": "PAYLOAD", "criticality_score": 9.0, "last_updated": "2026-07-21T16:42:32.471020+00:00", "maneuver_count": 0, "owner": "IT"}, "534": {"norad_id": "33434", "name": "CHUANG XIN 1-02(CX-1-02)", "tle1": "1 33434U 08056B   26202.29921168 -.00000117  00000-0 -28361-4 0  9991", "tle2": "2 33434  98.6129 228.2245 0015116  44.0189 316.2194 14.30158955923493", "object_type": "PAYLOAD", "criticality_score": 9.0, "last_updated": "2026-07-21T16:42:32.471020+00:00", "maneuver_count": 0, "owner": "PRC"}, "644": {"norad_id": "37180", "name": "SHIJIAN 6 04B (SJ-6 04B)", "tle1": "1 37180U 10051B   26202.25879438 -.00000462  00000-0 -32712-4 0  9997", "tle2": "2 37180  97.8729 208.0346 0008494 193.3373 166.7627 14.99379204860782", "object_type": "PAYLOAD", "criticality_score": 9.0, "last_updated": "2026-07-21T16:42:32.471020+00:00", "maneuver_count": 0, "owner": "PRC"}, "660": {"norad_id": "36358", "name": "RADUGA 1M-2", "tle1": "1 36358U 10002A   26201.61472685 -.00000278  00000-0  00000-0 0  9996", "tle2": "2 36358   3.7060  78.4444 0004707 263.7469 329.2546  0.98970303 50352", "object_type": "PAYLOAD", "criticality_score": 9.0, "last_updated": "2026-07-21T16:42:32.471020+00:00", "maneuver_count": 0, "owner": "CIS"}}}