OBJECT_NAME,OBJECT_ID,EPOCH,MEAN_MOTION,ECCENTRICITY,INCLINATION,RA_OF_ASC_NODE,ARG_OF_PERICENTER,MEAN_ANOMALY,EPHEMERIS_TYPE,CLASSIFICATION_TYPE,NORAD_CAT_ID,ELEMENT_SET_NO,REV_AT_EPOCH,BSTAR,MEAN_MOTION_DOT,MEAN_MOTION_DDOT
CHUANGXIN 1-02 (CX-1-02),2008-056B,2026-07-21T07:10:51.889152,14.30158955,.00151159,98.6129,228.2245,44.0189,316.2194,0,U,33434,999,92349,-.28360794E-4,-.117E-5,0
STARS (KUKAI),2009-002G,2026-07-20T19:10:28.100640,14.95948928,.00098888,98.1559,150.4864,64.5658,295.6584,0,U,33498,999,94350,.21145198E-3,.2307E-4,0
KKS-1 (KISEKI),2009-002H,2026-07-21T06:12:27.024768,14.83198668,.00079153,98.1170,125.2405,169.1403,190.9983,0,U,33499,999,94124,.10888884E-3,.834E-5,0
NOAA 19,2009-005A,2026-07-21T05:45:50.501376,14.13478933,.00127589,98.9504,273.1370,295.8072,64.1784,0,U,33591,999,89929,.29016521E-4,.1E-6,0
UK-DMC 2,2009-041C,2026-07-21T06:08:01.955616,14.76096698,.00016958,97.8881,336.3977,99.6298,260.5104,0,U,35683,999,91159,.2554538E-5,-.32E-6,0
METEOR-M 1,2009-049A,2026-07-21T04:10:15.101760,14.23163346,.00018303,98.7408,164.4069,179.5691,180.5489,0,U,35865,999,87408,.39591011E-4,.45E-6,0
OCEANSAT-2,2009-051A,2026-07-21T05:26:48.236352,13.99656399,.00176977,98.2326,185.6798,136.2220,224.0353,0,U,35931,999,88409,.90062366E-4,.94E-6,0
SWISSCUBE,2009-051B,2026-07-21T04:06:49.910400,14.62538143,.0008058,98.4001,110.6478,103.2004,257.0097,0,U,35932,999,89412,.13918073E-3,.657E-5,0
BEESAT-1,2009-051C,2026-07-21T04:46:02.394912,14.61768115,.00064218,98.3928,110.2394,114.2759,245.9113,0,U,35933,999,89415,.11883646E-3,.544E-5,0
ITUPSAT1,2009-051E,2026-07-21T05:15:52.732512,14.60484544,.00084133,98.4011,109.4157,126.3913,233.8064,0,U,35935,999,89370,.11301941E-3,.5E-5,0
DMSP 5D-3 F18 (USA 210),2009-057A,2026-07-21T05:25:24.627936,14.14914566,.00115662,98.9062,182.9253,148.9131,211.2729,0,U,35951,999,86440,.14165097E-3,.229E-5,0
PROBA-2,2009-059B,2026-07-21T05:10:17.325120,14.54875265,.00134472,98.2464,25.0987,170.1563,189.9900,0,U,36037,999,88647,.38914068E-4,.122E-5,0
YAOGAN-7,2009-069A,2026-07-21T03:23:22.115616,14.78039004,.00232181,98.0025,87.7916,291.2380,68.6351,0,U,36110,999,89464,.4478545E-4,.271E-5,0
XIWANG-1 (HOPE-1),2009-072B,2026-07-21T06:59:44.102688,13.16441904,.00077134,100.4044,155.5817,151.0751,209.0791,0,U,36122,999,79749,.96157604E-3,.323E-5,0
RADUGA-1M 2,2010-002A,2026-07-20T14:45:12.399840,0.98970303,.0004707,3.7060,78.4444,263.7469,329.2546,0,U,36358,999,5035,0,-.278E-5,0
COSMOS 2463,2010-017A,2026-07-21T02:35:54.237696,13.71667373,.00369957,82.9578,224.7822,37.8997,16.9995,0,U,36519,999,81258,.8958895E-5,.23E-6,0
CARTOSAT-2B,2010-035A,2026-07-21T07:27:01.075968,14.78655419,.00127347,97.9931,252.6380,82.6418,277.6240,0,U,36795,999,86489,.7054628E-4,.465E-5,0
AISSAT 1,2010-035C,2026-07-21T03:44:19.982112,14.97493412,.00076456,98.0890,102.5940,314.2500,45.8093,0,U,36797,999,86930,.118997E-3,.1324E-4,0
TISAT 1,2010-035E,2026-07-20T19:30:15.189120,15.32865338,.0004768,98.0710,151.3798,108.9672,251.2085,0,U,36799,999,87285,.42640571E-3,.1346E-3,0
YAOGAN-10,2010-038A,2026-07-21T07:24:52.365024,14.85440748,.00016118,97.8972,225.4415,85.7751,11.2747,0,U,36834,999,86227,.14021049E-3,.1155E-4,0
SHIJIAN-6 04B (SJ-6 04B),2010-051B,2026-07-21T06:12:39.834432,14.99379204,.00084937,97.8729,208.0346,193.3373,166.7627,0,U,37180,999,86078,-.32711522E-4,-.462E-5,0
FENGYUN 3B,2010-059A,2026-07-21T07:40:33.179808,14.14848181,.00232297,98.9601,248.4758,90.2349,333.2642,0,U,37214,999,81225,-.20151517E-4,-.84E-6,0
COSMO-SKYMED 4,2010-060A,2026-07-21T06:23:49.651296,14.82150582,.0001522,97.8904,25.3734,87.9965,272.1423,0,U,37216,999,84961,.29502729E-4,.183E-5,0
O/OREOS (USA 219),2010-062C,2026-07-20T21:07:43.364928,14.93865000,.00143792,71.9703,4.0077,354.1341,5.9659,0,U,37224,999,12167,.12316739E-3,.1247E-4,0
ELEKTRO-L 1 (GOMS 2),2011-001A,2026-07-21T03:13:38.957952,1.00162657,.00043384,9.7610,54.1551,35.2312,132.5873,0,U,37344,999,5682,0,.36E-6,0
RESOURCESAT-2,2011-015A,2026-07-21T05:23:34.332288,14.21600476,.00118963,98.7626,269.4282,154.4773,205.6994,0,U,37387,999,79101,.32658624E-4,.27E-6,0
YOUTHSAT,2011-015B,2026-07-20T21:57:36.739584,14.25642072,.00132905,98.3708,174.4527,240.9467,180.3361,0,U,37388,999,79244,.60759824E-4,.103E-5,0
APRIZESAT 6,2011-044F,2026-07-21T00:18:43.707168,14.76962228,.0042591,98.2331,113.1997,339.5794,39.4778,0,U,37793,999,80214,.69672475E-4,.441E-5,0
JUGNU,2011-058B,2026-07-21T02:53:56.999904,14.13784698,.00186373,19.9605,102.2612,91.5002,56.3743,0,U,37839,999,76383,.6084349E-4,.384E-5,0
SRMSAT,2011-058D,2026-07-21T07:15:01.016640,14.11581882,.00115937,19.9702,212.9798,218.6587,248.7511,0,U,37841,999,76264,.41536914E-4,.342E-5,0
